[{"OBJECT_NAME":"STARLINK-32188","OBJECT_ID":"2024-138L","EPOCH":"2025-11-13T05:04:35.687424","MEAN_MOTION":15.30183561,"ECCENTRICITY":0.00023752,"INCLINATION":53.1604,"RA_OF_ASC_NODE":130.6775,"ARG_OF_PERICENTER":90.4794,"MEAN_ANOMALY":269.6479,"EPHEMERIS_TYPE":0,"CLASSIFICATION_TYPE":"U","NORAD_CAT_ID":60365,"ELEMENT_SET_NO":999,"REV_AT_EPOCH":7279,"BSTAR":-5.9089555e-5,"MEAN_MOTION_DOT":-2.109e-5,"MEAN_MOTION_DDOT":0},{"OBJECT_NAME":"STARLINK-32230","OBJECT_ID":"2024-138M","EPOCH":"2025-11-13T05:22:47.585568","MEAN_MOTION":15.30223998,"ECCENTRICITY":0.0001307,"INCLINATION":53.1666,"RA_OF_ASC_NODE":130.76,"ARG_OF_PERICENTER":305.9563,"MEAN_ANOMALY":54.1317,"EPHEMERIS_TYPE":0,"CLASSIFICATION_TYPE":"U","NORAD_CAT_ID":60366,"ELEMENT_SET_NO":999,"REV_AT_EPOCH":7279,"BSTAR":0.00024601827,"MEAN_MOTION_DOT":6.939e-5,"MEAN_MOTION_DDOT":0},{"OBJECT_NAME":"STARLINK-32243","OBJECT_ID":"2024-138N","EPOCH":"2025-11-13T05:07:37.430688","MEAN_MOTION":15.30186766,"ECCENTRICITY":0.00014162,"INCLINATION":53.159,"RA_OF_ASC_NODE":130.6882,"ARG_OF_PERICENTER":94.0228,"MEAN_ANOMALY":266.0934,"EPHEMERIS_TYPE":0,"CLASSIFICATION_TYPE":"U","NORAD_CAT_ID":60367,"ELEMENT_SET_NO":999,"REV_AT_EPOCH":7279,"BSTAR":-3.950513e-5,"MEAN_MOTION_DOT":-1.529e-5,"MEAN_MOTION_DDOT":0},{"OBJECT_NAME":"STARLINK-32271","OBJECT_ID":"2024-138P","EPOCH":"2025-11-12T21:46:13.644768","MEAN_MOTION":15.30195053,"ECCENTRICITY":0.0001726,"INCLINATION":53.1603,"RA_OF_ASC_NODE":132.335,"ARG_OF_PERICENTER":55.5722,"MEAN_ANOMALY":304.5442,"EPHEMERIS_TYPE":0,"CLASSIFICATION_TYPE":"U","NORAD_CAT_ID":60368,"ELEMENT_SET_NO":999,"REV_AT_EPOCH":7274,"BSTAR":2.9993e-5,"MEAN_MOTION_DOT":5.29e-6,"MEAN_MOTION_DDOT":0},{"OBJECT_NAME":"STARLINK-32266","OBJECT_ID":"2024-138Q","EPOCH":"2025-11-12T20:08:33.218304","MEAN_MOTION":15.33027055,"ECCENTRICITY":0.00011373,"INCLINATION":53.1564,"RA_OF_ASC_NODE":119.6164,"ARG_OF_PERICENTER":345.3064,"MEAN_ANOMALY":14.7905,"EPHEMERIS_TYPE":0,"CLASSIFICATION_TYPE":"U","NORAD_CAT_ID":60369,"ELEMENT_SET_NO":999,"REV_AT_EPOCH":7291,"BSTAR":0.0010946964,"MEAN_MOTION_DOT":0.0003521,"MEAN_MOTION_DDOT":0},{"OBJECT_NAME":"STARLINK-32220","OBJECT_ID":"2024-138R","EPOCH":"2025-11-13T05:16:44.609664","MEAN_MOTION":15.30188374,"ECCENTRICITY":0.00021581,"INCLINATION":53.1614,"RA_OF_ASC_NODE":130.7267,"ARG_OF_PERICENTER":87.8613,"MEAN_ANOMALY":272.2635,"EPHEMERIS_TYPE":0,"CLASSIFICATION_TYPE":"U","NORAD_CAT_ID":60370,"ELEMENT_SET_NO":999,"REV_AT_EPOCH":7279,"BSTAR":-3.2790148e-5,"MEAN_MOTION_DOT":-1.33e-5,"MEAN_MOTION_DDOT":0},{"OBJECT_NAME":"STARLINK-32263","OBJECT_ID":"2024-138S","EPOCH":"2025-11-13T04:18:59.430528","MEAN_MOTION":15.30200469,"ECCENTRICITY":0.00018652,"INCLINATION":53.1546,"RA_OF_ASC_NODE":130.4787,"ARG_OF_PERICENTER":78.8004,"MEAN_ANOMALY":281.3207,"EPHEMERIS_TYPE":0,"CLASSIFICATION_TYPE":"U","NORAD_CAT_ID":60371,"ELEMENT_SET_NO":999,"REV_AT_EPOCH":7269,"BSTAR":-0.00017076639,"MEAN_MOTION_DOT":-5.414e-5,"MEAN_MOTION_DDOT":0},{"OBJECT_NAME":"STARLINK-32268","OBJECT_ID":"2024-138T","EPOCH":"2025-11-12T21:47:43.046304","MEAN_MOTION":15.30220599,"ECCENTRICITY":0.0001914,"INCLINATION":53.1549,"RA_OF_ASC_NODE":132.3356,"ARG_OF_PERICENTER":98.248,"MEAN_ANOMALY":261.8737,"EPHEMERIS_TYPE":0,"CLASSIFICATION_TYPE":"U","NORAD_CAT_ID":60372,"ELEMENT_SET_NO":999,"REV_AT_EPOCH":7274,"BSTAR":0.0001163,"MEAN_MOTION_DOT":3.089e-5,"MEAN_MOTION_DDOT":0},{"OBJECT_NAME":"STARLINK-32223","OBJECT_ID":"2024-138U","EPOCH":"2025-11-13T05:09:07.756704","MEAN_MOTION":15.30207517,"ECCENTRICITY":0.00010472,"INCLINATION":53.1608,"RA_OF_ASC_NODE":130.6956,"ARG_OF_PERICENTER":71.2828,"MEAN_ANOMALY":288.8287,"EPHEMERIS_TYPE":0,"CLASSIFICATION_TYPE":"U","NORAD_CAT_ID":60373,"ELEMENT_SET_NO":999,"REV_AT_EPOCH":7269,"BSTAR":0.00011274283,"MEAN_MOTION_DOT":2.982e-5,"MEAN_MOTION_DDOT":0},{"OBJECT_NAME":"STARLINK-32180","OBJECT_ID":"2024-138V","EPOCH":"2025-11-13T05:12:11.481120","MEAN_MOTION":15.3018482,"ECCENTRICITY":0.00023574,"INCLINATION":53.1616,"RA_OF_ASC_NODE":130.7069,"ARG_OF_PERICENTER":88.6915,"MEAN_ANOMALY":271.4356,"EPHEMERIS_TYPE":0,"CLASSIFICATION_TYPE":"U","NORAD_CAT_ID":60374,"ELEMENT_SET_NO":999,"REV_AT_EPOCH":7279,"BSTAR":-6.446301e-5,"MEAN_MOTION_DOT":-2.268e-5,"MEAN_MOTION_DDOT":0},{"OBJECT_NAME":"STARLINK-32281","OBJECT_ID":"2024-138W","EPOCH":"2025-11-12T22:16:26.133600","MEAN_MOTION":15.30210979,"ECCENTRICITY":5.34e-5,"INCLINATION":53.1577,"RA_OF_ASC_NODE":131.7518,"ARG_OF_PERICENTER":49.4182,"MEAN_ANOMALY":310.6865,"EPHEMERIS_TYPE":0,"CLASSIFICATION_TYPE":"U","NORAD_CAT_ID":60375,"ELEMENT_SET_NO":999,"REV_AT_EPOCH":7265,"BSTAR":7.0689e-5,"MEAN_MOTION_DOT":1.736e-5,"MEAN_MOTION_DDOT":0},{"OBJECT_NAME":"STARLINK-32277","OBJECT_ID":"2024-138X","EPOCH":"2025-11-13T05:21:17.875584","MEAN_MOTION":15.30189937,"ECCENTRICITY":0.00018751,"INCLINATION":53.1611,"RA_OF_ASC_NODE":130.7463,"ARG_OF_PERICENTER":80.7369,"MEAN_ANOMALY":279.3843,"EPHEMERIS_TYPE":0,"CLASSIFICATION_TYPE":"U","NORAD_CAT_ID":60376,"ELEMENT_SET_NO":999,"REV_AT_EPOCH":7279,"BSTAR":2.5131397e-5,"MEAN_MOTION_DOT":3.85e-6,"MEAN_MOTION_DDOT":0},{"OBJECT_NAME":"STARLINK-32269","OBJECT_ID":"2024-138Y","EPOCH":"2025-11-12T21:08:13.275744","MEAN_MOTION":15.30204214,"ECCENTRICITY":0.0002327,"INCLINATION":53.1576,"RA_OF_ASC_NODE":132.1648,"ARG_OF_PERICENTER":92.5475,"MEAN_ANOMALY":267.5792,"EPHEMERIS_TYPE":0,"CLASSIFICATION_TYPE":"U","NORAD_CAT_ID":60377,"ELEMENT_SET_NO":999,"REV_AT_EPOCH":7274,"BSTAR":5.5052e-5,"MEAN_MOTION_DOT":1.271e-5,"MEAN_MOTION_DDOT":0},{"OBJECT_NAME":"STARLINK-11228 [DTC]","OBJECT_ID":"2024-141A","EPOCH":"2025-11-13T05:52:10.711488","MEAN_MOTION":15.69676181,"ECCENTRICITY":0.00010824,"INCLINATION":53.1578,"RA_OF_ASC_NODE":300.3127,"ARG_OF_PERICENTER":76.887,"MEAN_ANOMALY":283.2269,"EPHEMERIS_TYPE":0,"CLASSIFICATION_TYPE":"U","NORAD_CAT_ID":60398,"ELEMENT_SET_NO":999,"REV_AT_EPOCH":7340,"BSTAR":-3.2930679e-5,"MEAN_MOTION_DOT":-4.57e-5,"MEAN_MOTION_DDOT":0},{"OBJECT_NAME":"STARLINK-11182 [DTC]","OBJECT_ID":"2024-141B","EPOCH":"2025-11-13T05:30:59.157504","MEAN_MOTION":15.69679562,"ECCENTRICITY":9.828e-5,"INCLINATION":53.159,"RA_OF_ASC_NODE":300.2128,"ARG_OF_PERICENTER":122.3848,"MEAN_ANOMALY":237.7265,"EPHEMERIS_TYPE":0,"CLASSIFICATION_TYPE":"U","NORAD_CAT_ID":60399,"ELEMENT_SET_NO":999,"REV_AT_EPOCH":7345,"BSTAR":-4.0691213e-5,"MEAN_MOTION_DOT":-5.508e-5,"MEAN_MOTION_DDOT":0},{"OBJECT_NAME":"STARLINK-11234 [DTC]","OBJECT_ID":"2024-141C","EPOCH":"2025-11-13T05:23:56.673600","MEAN_MOTION":15.69654884,"ECCENTRICITY":0.00013395,"INCLINATION":53.1594,"RA_OF_ASC_NODE":300.183,"ARG_OF_PERICENTER":72.0159,"MEAN_ANOMALY":288.1005,"EPHEMERIS_TYPE":0,"CLASSIFICATION_TYPE":"U","NORAD_CAT_ID":60400,"ELEMENT_SET_NO":999,"REV_AT_EPOCH":7340,"BSTAR":-4.7518705e-5,"MEAN_MOTION_DOT":-6.328e-5,"MEAN_MOTION_DDOT":0},{"OBJECT_NAME":"STARLINK-11232 [DTC]","OBJECT_ID":"2024-141D","EPOCH":"2025-11-13T05:16:51.494880","MEAN_MOTION":15.6967744,"ECCENTRICITY":0.00013497,"INCLINATION":53.1593,"RA_OF_ASC_NODE":300.1476,"ARG_OF_PERICENTER":111.544,"MEAN_ANOMALY":248.5722,"EPHEMERIS_TYPE":0,"CLASSIFICATION_TYPE":"U","NORAD_CAT_ID":60401,"ELEMENT_SET_NO":999,"REV_AT_EPOCH":7345,"BSTAR":-5.1087716e-5,"MEAN_MOTION_DOT":-6.765e-5,"MEAN_MOTION_DDOT":0},{"OBJECT_NAME":"STARLINK-11139 [DTC]","OBJECT_ID":"2024-141E","EPOCH":"2025-11-13T05:09:43.340544","MEAN_MOTION":15.69730793,"ECCENTRICITY":0.00015309,"INCLINATION":53.1593,"RA_OF_ASC_NODE":300.1147,"ARG_OF_PERICENTER":101.7673,"MEAN_ANOMALY":258.3516,"EPHEMERIS_TYPE":0,"CLASSIFICATION_TYPE":"U","NORAD_CAT_ID":60402,"ELEMENT_SET_NO":999,"REV_AT_EPOCH":7345,"BSTAR":1.841584e-5,"MEAN_MOTION_DOT":1.644e-5,"MEAN_MOTION_DDOT":0},{"OBJECT_NAME":"STARLINK-11158 [DTC]","OBJECT_ID":"2024-141F","EPOCH":"2025-11-13T05:02:53.459808","MEAN_MOTION":15.69670281,"ECCENTRICITY":0.00011972,"INCLINATION":53.1582,"RA_OF_ASC_NODE":300.8185,"ARG_OF_PERICENTER":115.326,"MEAN_ANOMALY":244.7882,"EPHEMERIS_TYPE":0,"CLASSIFICATION_TYPE":"U","NORAD_CAT_ID":60403,"ELEMENT_SET_NO":999,"REV_AT_EPOCH":7339,"BSTAR":-4.8572223e-5,"MEAN_MOTION_DOT":-6.459e-5,"MEAN_MOTION_DDOT":0},{"OBJECT_NAME":"STARLINK-11199 [DTC]","OBJECT_ID":"2024-141G","EPOCH":"2025-11-13T04:55:50.214720","MEAN_MOTION":15.69659251,"ECCENTRICITY":0.00010149,"INCLINATION":53.1585,"RA_OF_ASC_NODE":300.7852,"ARG_OF_PERICENTER":99.2214,"MEAN_ANOMALY":260.8919,"EPHEMERIS_TYPE":0,"CLASSIFICATION_TYPE":"U","NORAD_CAT_ID":60404,"ELEMENT_SET_NO":999,"REV_AT_EPOCH":7344,"BSTAR":-5.4759318e-5,"MEAN_MOTION_DOT":-7.202e-5,"MEAN_MOTION_DDOT":0},{"OBJECT_NAME":"STARLINK-11081 [DTC]","OBJECT_ID":"2024-141H","EPOCH":"2025-11-13T06:20:26.176704","MEAN_MOTION":15.69676343,"ECCENTRICITY":0.00015649,"INCLINATION":53.1581,"RA_OF_ASC_NODE":300.4388,"ARG_OF_PERICENTER":96.7657,"MEAN_ANOMALY":263.3539,"EPHEMERIS_TYPE":0,"CLASSIFICATION_TYPE":"U","NORAD_CAT_ID":60405,"ELEMENT_SET_NO":999,"REV_AT_EPOCH":7340,"BSTAR":-4.5911542e-5,"MEAN_MOTION_DOT":-6.139e-5,"MEAN_MOTION_DDOT":0},{"OBJECT_NAME":"STARLINK-11150 [DTC]","OBJECT_ID":"2024-141J","EPOCH":"2025-11-13T06:13:21.991584","MEAN_MOTION":15.69680875,"ECCENTRICITY":0.00012041,"INCLINATION":53.1589,"RA_OF_ASC_NODE":300.4059,"ARG_OF_PERICENTER":103.1388,"MEAN_ANOMALY":256.9765,"EPHEMERIS_TYPE":0,"CLASSIFICATION_TYPE":"U","NORAD_CAT_ID":60406,"ELEMENT_SET_NO":999,"REV_AT_EPOCH":7345,"BSTAR":-1.4421876e-5,"MEAN_MOTION_DOT":-2.333e-5,"MEAN_MOTION_DDOT":0},{"OBJECT_NAME":"STARLINK-11136 [DTC]","OBJECT_ID":"2024-141K","EPOCH":"2025-11-13T06:06:18.193536","MEAN_MOTION":15.69675903,"ECCENTRICITY":0.00011911,"INCLINATION":53.1588,"RA_OF_ASC_NODE":300.3728,"ARG_OF_PERICENTER":91.7432,"MEAN_ANOMALY":268.3722,"EPHEMERIS_TYPE":0,"CLASSIFICATION_TYPE":"U","NORAD_CAT_ID":60407,"ELEMENT_SET_NO":999,"REV_AT_EPOCH":7340,"BSTAR":-3.5021588e-5,"MEAN_MOTION_DOT":-4.823e-5,"MEAN_MOTION_DDOT":0}]
